NORAD_CAT_ID,OBJECT_NAME,OBJECT_TYPE,EPOCH,MEAN_MOTION,ECCENTRICITY,INCLINATION,RA_OF_ASC_NODE,ARG_OF_PERICENTER,MEAN_ANOMALY,BSTAR,MEAN_MOTION_DOT,MEAN_MOTION_DDOT,TLE_LINE0,TLE_LINE1,TLE_LINE2,SEMIMAJOR_AXIS,PERIOD,APOGEE,PERIGEE,DECAYED
52600.0,STARLINK-4026,PAYLOAD,2024-07-01 22:59:32,15.08840166,0.0001454,53.2147,163.247,96.8795,263.2363,0.00020343,2.951e-05,0.0,0 STARLINK-4026,1 52600U 22052C   24183.95801956  .00002951  00000-0  20343-3 0  9997,2 52600  53.2147 163.2470 0001454  96.8795 263.2363 15.08840166118709,6917.88,95.438,540.751,538.739,0.0
52600.0,STARLINK-4026,PAYLOAD,2024-07-02 05:21:05,15.08835814,0.0001418,53.2145,162.0583,93.1478,266.9677,0.00011475,1.539e-05,0.0,0 STARLINK-4026,1 52600U 22052C   24184.22298222  .00001539  00000-0  11475-3 0  9991,2 52600  53.2145 162.0583 0001418  93.1478 266.9677 15.08835814118316,6917.893,95.438,540.739,538.777,0.0
52600.0,STARLINK-4026,PAYLOAD,2024-07-02 08:31:51,15.08839734,0.0001409,53.2144,161.4636,90.9153,269.2,0.00013281,1.826e-05,0.0,0 STARLINK-4026,1 52600U 22052C   24184.35546020  .00001826  00000-0  13281-3 0  9993,2 52600  53.2144 161.4636 0001409  90.9153 269.2000 15.08839734118762,6917.881,95.438,540.721,538.771,0.0
52600.0,STARLINK-4026,PAYLOAD,2024-07-03 08:22:39,15.08836615,0.0001282,53.2148,157.0023,88.4546,271.6592,7.4644e-06,-1.69e-06,0.0,0 STARLINK-4026,1 52600U 22052C   24185.34906441 -.00000169  00000-0  74644-5 0  9992,2 52600  53.2148 157.0023 0001282  88.4546 271.6592 15.08836615118481,6917.891,95.438,540.643,538.869,0.0
52600.0,STARLINK-4026,PAYLOAD,2024-07-03 14:44:11,15.08839903,0.0001251,53.2149,155.8132,86.1157,273.9978,6.3555e-05,7.24e-06,0.0,0 STARLINK-4026,1 52600U 22052C   24185.61402081  .00000724  00000-0  63555-4 0  9997,2 52600  53.2149 155.8132 0001251  86.1157 273.9978 15.08839903118956,6917.881,95.438,540.611,538.88,0.0
52600.0,STARLINK-4026,PAYLOAD,2024-07-04 14:34:58,15.08843707,0.0001441,53.2169,151.3546,89.6152,270.5005,0.00012877,1.762e-05,0.0,0 STARLINK-4026,1 52600U 22052C   24186.60761875  .00001762  00000-0  12877-3 0  9999,2 52600  53.2169 151.3546 0001441  89.6152 270.5005 15.08843707119101,6917.869,95.437,540.731,538.737,0.0
52600.0,STARLINK-4026,PAYLOAD,2024-07-05 04:53:27,15.08836121,0.0001469,53.217,148.6783,89.1996,270.9164,7.1155e-05,8.45e-06,0.0,0 STARLINK-4026,1 52600U 22052C   24187.20378709  .00000845  00000-0  71155-4 0  9992,2 52600  53.2170 148.6783 0001469  89.1996 270.9164 15.08836121118769,6917.892,95.438,540.773,538.741,0.0
52600.0,STARLINK-4026,PAYLOAD,2024-07-05 14:25:45,15.08842815,0.0001427,53.2163,146.8935,92.9386,267.1769,9.5882e-05,1.238e-05,0.0,0 STARLINK-4026,1 52600U 22052C   24187.60122249  .00001238  00000-0  95882-4 0  9992,2 52600  53.2163 146.8935 0001427  92.9386 267.1769 15.08842815119250,6917.872,95.437,540.724,538.75,0.0
52600.0,STARLINK-4026,PAYLOAD,2024-07-06 04:44:14,15.08835886,0.000167,53.2158,144.2156,87.736,272.3823,-1.2939e-05,-4.94e-06,0.0,0 STARLINK-4026,1 52600U 22052C   24188.19739285 -.00000494  00000-0 -12939-4 0  9998,2 52600  53.2158 144.2156 0001670  87.7360 272.3823 15.08835886118916,6917.893,95.438,540.913,538.603,0.0
52600.0,STARLINK-4026,PAYLOAD,2024-07-06 14:16:32,15.08844853,0.0001705,53.2153,142.4315,88.0847,272.034,4.3988e-05,4.12e-06,0.0,0 STARLINK-4026,1 52600U 22052C   24188.59482444  .00000412  00000-0  43988-4 0  9990,2 52600  53.2153 142.4315 0001705  88.0847 272.0340 15.08844853119401,6917.866,95.437,540.91,538.551,0.0
52600.0,STARLINK-4026,PAYLOAD,2024-07-07 04:35:01,15.08838327,0.000133,53.2158,139.7545,95.5526,264.5618,1.0773e-05,-1.16e-06,0.0,0 STARLINK-4026,1 52600U 22052C   24189.19098867 -.00000116  00000-0  10773-4 0  9997,2 52600  53.2158 139.7545 0001330  95.5526 264.5618 15.08838327119066,6917.886,95.438,540.671,538.83,0.0
52600.0,STARLINK-4026,PAYLOAD,2024-07-07 06:10:24,15.08839715,0.000134,53.2159,139.4567,95.9092,264.2053,2.2746e-05,7.4e-07,0.0,0 STARLINK-4026,1 52600U 22052C   24189.25722737  .00000074  00000-0  22746-4 0  9999,2 52600  53.2159 139.4567 0001340  95.9092 264.2053 15.08839715119502,6917.881,95.438,540.673,538.819,0.0
52600.0,STARLINK-4026,PAYLOAD,2024-07-08 06:01:10,15.08846013,0.0001297,53.2159,134.9964,99.6084,260.5054,9.9556e-05,1.297e-05,0.0,0 STARLINK-4026,1 52600U 22052C   24190.25082087  .00001297  00000-0  99556-4 0  9999,2 52600  53.2159 134.9964 0001297  99.6084 260.5054 15.08846013119224,6917.862,95.437,540.624,538.83,0.0
52600.0,STARLINK-4026,PAYLOAD,2024-07-09 02:41:12,15.08835654,0.0001338,53.2157,131.1283,107.1057,253.0081,7.2004e-05,8.58e-06,0.0,0 STARLINK-4026,1 52600U 22052C   24191.11194689  .00000858  00000-0  72004-4 0  9998,2 52600  53.2157 131.1283 0001338 107.1057 253.0081 15.08835654119356,6917.894,95.438,540.684,538.833,0.0
52600.0,STARLINK-4026,PAYLOAD,2024-07-10 02:31:59,15.08834168,0.0001198,53.2157,126.6744,94.2162,265.8967,-1.3812e-05,-5.08e-06,0.0,0 STARLINK-4026,1 52600U 22052C   24192.10555287 -.00000508  00000-0 -13812-4 0  9999,2 52600  53.2157 126.6744 0001198  94.2162 265.8967 15.08834168119931,6917.898,95.438,540.592,538.934,0.0
52600.0,STARLINK-4026,PAYLOAD,2024-07-11 02:22:46,15.08836961,0.0001309,53.2161,122.2143,100.8971,259.2169,6.0231e-05,6.71e-06,0.0,0 STARLINK-4026,1 52600U 22052C   24193.09915147  .00000671  00000-0  60231-4 0  9999,2 52600  53.2161 122.2143 0001309 100.8971 259.2169 15.08836961120089,6917.89,95.438,540.66,538.849,0.0
52600.0,STARLINK-4026,PAYLOAD,2024-07-12 03:48:57,15.0883809,0.000127,53.2165,117.454,94.1248,265.989,9.5295e-05,1.229e-05,0.0,0 STARLINK-4026,1 52600U 22052C   24194.15899319  .00001229  00000-0  95295-4 0  9997,2 52600  53.2165 117.4540 0001270  94.1248 265.9890 15.08838090119818,6917.886,95.438,540.63,538.873,0.0
52600.0,STARLINK-4026,PAYLOAD,2024-07-12 11:45:51,15.08849582,0.0001177,53.216,115.9656,83.1835,276.9291,0.0001761,2.517e-05,0.0,0 STARLINK-4026,1 52600U 22052C   24194.49018361  .00002517  00000-0  17610-3 0  9999,2 52600  53.2160 115.9656 0001177  83.1835 276.9291 15.08849582119860,6917.851,95.437,540.53,538.902,0.0
52600.0,STARLINK-4026,PAYLOAD,2024-07-12 18:07:25,15.08845092,0.0002686,53.2164,114.7764,81.3169,278.8127,8.3385e-05,1.039e-05,0.0,0 STARLINK-4026,1 52600U 22052C   24194.75515444  .00001039  00000-0  83385-4 0  9993,2 52600  53.2164 114.7764 0002686  81.3169 278.8127 15.08845092119903,6917.865,95.437,541.588,537.872,0.0
52600.0,STARLINK-4026,PAYLOAD,2024-07-12 22:53:35,15.08830959,0.000172,53.2158,113.885,83.3818,276.737,-4.5377e-05,-1.01e-05,0.0,0 STARLINK-4026,1 52600U 22052C   24194.95388521 -.00001010  00000-0 -45377-4 0  9999,2 52600  53.2158 113.8850 0001720  83.3818 276.7370 15.08830959120368,6917.908,95.438,540.963,538.583,0.0
52600.0,STARLINK-4026,PAYLOAD,2024-07-13 03:39:45,15.08832284,0.0001641,53.2161,112.9929,83.9142,276.2037,-2.9829e-05,-7.63e-06,0.0,0 STARLINK-4026,1 52600U 22052C   24195.15260493 -.00000763  00000-0 -29829-4 0  9997,2 52600  53.2161 112.9929 0001641  83.9142 276.2037 15.08832284119969,6917.904,95.438,540.904,538.634,0.0
52600.0,STARLINK-4026,PAYLOAD,2024-07-13 11:36:39,15.08846498,0.0001496,53.2162,111.506,80.2366,279.8795,9.916e-05,1.291e-05,0.0,0 STARLINK-4026,1 52600U 22052C   24195.48379231  .00001291  00000-0  99160-4 0  9994,2 52600  53.2162 111.5060 0001496  80.2366 279.8795 15.08846498120017,6917.861,95.437,540.76,538.691,0.0
52600.0,STARLINK-4026,PAYLOAD,2024-07-13 22:44:22,15.08835996,0.0001599,53.2169,109.4252,82.1382,277.9791,8.1718e-05,1.013e-05,0.0,0 STARLINK-4026,1 52600U 22052C   24195.94748050  .00001013  00000-0  81718-4 0  9996,2 52600  53.2169 109.4252 0001599  82.1382 277.9791 15.08835996120517,6917.893,95.438,540.864,538.651,0.0
52600.0,STARLINK-4026,PAYLOAD,2024-07-14 01:55:08,15.08842431,0.0001406,53.2162,108.8293,79.9559,280.1592,0.00010431,1.373e-05,0.0,0 STARLINK-4026,1 52600U 22052C   24196.07995626  .00001373  00000-0  10431-3 0  9996,2 52600  53.2162 108.8293 0001406  79.9559 280.1592 15.08842431120107,6917.873,95.437,540.711,538.765,0.0
52600.0,STARLINK-4026,PAYLOAD,2024-07-14 11:27:26,15.08855253,0.0001578,53.2182,107.0474,86.4697,273.6475,0.00014328,1.994e-05,0.0,0 STARLINK-4026,1 52600U 22052C   24196.47738624  .00001994  00000-0  14328-3 0  9991,2 52600  53.2182 107.0474 0001578  86.4697 273.6475 15.08855253120166,6917.834,95.437,540.79,538.607,0.0
52600.0,STARLINK-4026,PAYLOAD,2024-07-14 17:49:00,15.08829164,0.0001643,53.2163,105.8569,81.0102,279.1076,0.00014691,2.05e-05,0.0,0 STARLINK-4026,1 52600U 22052C   24196.74236192  .00002050  00000-0  14691-3 0  9991,2 52600  53.2163 105.8569 0001643  81.0102 279.1076 15.08829164120206,6917.914,95.438,540.915,538.642,0.0
52600.0,STARLINK-4026,PAYLOAD,2024-07-14 22:35:09,15.08834332,0.0001702,53.2162,104.9651,80.2893,279.8291,0.00018949,2.729e-05,0.0,0 STARLINK-4026,1 52600U 22052C   24196.94108015  .00002729  00000-0  18949-3 0  9998,2 52600  53.2162 104.9651 0001702  80.2893 279.8291 15.08834332120660,6917.898,95.438,540.94,538.585,0.0
52600.0,STARLINK-4026,PAYLOAD,2024-07-15 00:10:32,15.0883964,0.0001636,53.2156,104.6664,80.0277,280.0899,0.00010717,1.418e-05,0.0,0 STARLINK-4026,1 52600U 22052C   24197.00731648  .00001418  00000-0  10717-3 0  9999,2 52600  53.2156 104.6664 0001636  80.0277 280.0899 15.08839640120243,6917.881,95.438,540.878,538.615,0.0
52600.0,STARLINK-4026,PAYLOAD,2024-07-15 11:18:13,15.08852219,0.0001594,53.2174,102.5841,93.1642,266.9533,0.00018109,2.596e-05,0.0,0 STARLINK-4026,1 52600U 22052C   24197.47098831  .00002596  00000-0  18109-3 0  9991,2 52600  53.2174 102.5841 0001594  93.1642 266.9533 15.08852219120314,6917.843,95.437,540.811,538.605,0.0
52600.0,STARLINK-4026,PAYLOAD,2024-07-15 20:50:32,15.08833912,0.0001615,53.2184,100.7965,103.3107,256.8066,-3.1078e-05,-7.83e-06,0.0,0 STARLINK-4026,1 52600U 22052C   24197.86843726 -.00000783  00000-0 -31078-4 0  9994,2 52600  53.2184 100.7965 0001615 103.3107 256.8066 15.08833912120370,6917.899,95.438,540.881,538.647,0.0
